OBJECT_NAME,OBJECT_ID,EPOCH,MEAN_MOTION,ECCENTRICITY,INCLINATION,RA_OF_ASC_NODE,ARG_OF_PERICENTER,MEAN_ANOMALY,EPHEMERIS_TYPE,CLASSIFICATION_TYPE,NORAD_CAT_ID,ELEMENT_SET_NO,REV_AT_EPOCH,BSTAR,MEAN_MOTION_DOT,MEAN_MOTION_DDOT
STARLINK-2700,2021-040D,2026-06-19T08:22:45.048000,15.31705300,.00010933,53.1589,39.8683,90.2884,269.8243,0,U,48431,999,28260,.33690577E-4,.681E-5,0
STARLINK-2680,2021-040E,2026-06-19T08:16:03.426240,15.31703403,.00011785,53.1604,39.9915,84.2740,275.8395,0,U,48432,999,28259,.49785876E-4,.118E-4,0
STARLINK-2699,2021-040F,2026-06-19T08:42:50.532768,15.31706580,.00011594,53.1615,39.6137,82.7153,277.3981,0,U,48433,999,28260,.10608033E-3,.2929E-4,0
STARLINK-2692,2021-040G,2026-06-19T08:16:30.932544,15.31708328,.00007905,53.1600,39.8608,103.4089,256.7000,0,U,48434,999,28261,.22284721E-4,.327E-5,0
STARLINK-2633,2021-040H,2026-06-19T20:18:29.352384,15.31698418,.0001159,53.1595,50.0196,89.7752,270.3383,0,U,48435,999,28250,-.24981E-3,-.8108E-4,0
STARLINK-2639,2021-040J,2026-06-19T10:18:54.346752,15.31699637,.00011553,53.1593,64.8368,85.0109,275.1024,0,U,48436,999,28226,.62274913E-4,.1568E-4,0
STARLINK-2642,2021-040K,2026-06-19T18:27:01.658016,15.31702884,.000141,53.1604,76.1572,105.0788,255.0370,0,U,48437,999,28213,.33126E-4,.663E-5,0
STARLINK-2640,2021-040L,2026-06-19T10:19:22.893312,15.31710703,.00012384,53.1599,64.8967,86.6151,273.4992,0,U,48438,999,28226,.14309933E-4,.79E-6,0
STARLINK-2583,2021-040M,2026-06-19T10:39:33.076512,15.31713788,.00010747,53.1600,65.0092,75.3594,284.7527,0,U,48439,999,28226,.69132922E-4,.1782E-4,0
STARLINK-2682,2021-040N,2026-06-19T20:56:58.079616,15.31703316,.0001432,53.1604,62.7453,99.0143,261.1021,0,U,48440,999,28233,.45411E-4,.1044E-4,0
STARLINK-2702,2021-040P,2026-06-19T10:05:58.430688,15.31688892,.00014351,53.1612,64.9388,91.7546,268.3620,0,U,48441,999,28226,.41451275E-3,.12515E-3,0
STARLINK-2644,2021-040Q,2026-06-19T02:19:15.945312,15.45386543,.00019941,53.1593,63.6736,206.3343,153.7563,0,U,48442,999,28225,.77895195E-3,.37565E-3,0
STARLINK-2663,2021-040R,2026-06-19T17:28:54.179904,15.31701203,.0001427,53.1599,63.3893,96.6013,263.5151,0,U,48443,999,28231,.36496E-4,.767E-5,0
STARLINK-2645,2021-040S,2026-06-19T17:35:38.188032,15.31696692,.0001169,53.1606,63.4542,99.2925,260.8209,0,U,48444,999,28231,.60361E-4,.1508E-4,0
STARLINK-2634,2021-040T,2026-06-19T01:42:35.168832,15.31713384,.00011895,53.1595,66.4730,95.7020,264.4117,0,U,48445,999,28221,.14614032E-3,.4174E-4,0
STARLINK-2655,2021-040X,2026-06-18T23:55:12.105696,15.31717382,.00010021,53.1604,66.8338,85.9910,274.1206,0,U,48449,999,28220,-.30033253E-4,-.1297E-4,0
STARLINK-2703,2021-040AA,2026-06-19T02:56:24.628128,15.31717276,.00011026,53.1594,66.2421,83.0730,277.0397,0,U,48452,999,28222,.10146565E-3,.2786E-4,0
STARLINK-2620,2021-040AB,2026-06-19T10:32:47.083776,15.31706670,.00009863,53.1599,64.7400,92.5289,267.5826,0,U,48453,999,28227,.4240268E-5,-.233E-5,0
STARLINK-2654,2021-040AC,2026-06-19T10:26:04.218720,15.31713538,.00011187,53.1591,64.7560,64.1246,295.9871,0,U,48454,999,28227,.10413801E-3,.2869E-4,0
STARLINK-2497,2021-040AD,2026-06-19T12:33:38.774880,15.31699220,.00012244,53.1597,64.6355,98.3490,261.7651,0,U,48455,999,28227,.13256342E-3,.375E-4,0
STARLINK-2698,2021-040AG,2026-06-18T22:28:33.834144,15.31711955,.0001192,53.1598,67.7489,98.5299,261.5838,0,U,48458,999,28290,.54109E-4,.1315E-4,0
STARLINK-2579,2021-040AH,2026-06-19T00:48:54.254592,15.31707269,.0001188,53.1603,66.6879,95.5460,264.5677,0,U,48459,999,28222,.37966702E-4,.813E-5,0
STARLINK-2582,2021-040AJ,2026-06-19T20:00:01.999008,15.80679712,.000112,53.0480,347.1603,189.2631,230.0008,0,U,48460,999,597,.64609E-3,.12759E-2,0
STARLINK-2683,2021-040AL,2026-06-19T10:57:22.311936,15.31718675,.00017278,53.1598,77.6320,85.6364,274.4835,0,U,48462,999,28209,.71903853E-3,.22026E-3,0
STARLINK-2686,2021-040AN,2026-06-19T11:31:25.503456,15.31708761,.00011143,53.1603,77.6393,90.1583,269.9546,0,U,48464,999,28209,.53667181E-4,.1301E-4,0
STARLINK-2681,2021-040AP,2026-06-19T19:50:20.386176,15.72592279,.0001192,53.1388,62.3206,172.3038,187.7999,0,U,48465,999,28234,.62352E-3,.85531E-3,0
STARLINK-2687,2021-040AQ,2026-06-19T11:17:30.195168,15.31713214,.00012012,53.1602,77.6088,72.6275,287.4858,0,U,48466,999,28210,.10039954E-3,.2753E-4,0
STARLINK-2659,2021-040AR,2026-06-19T00:39:52.731360,15.31724970,.00013054,53.1610,79.5518,87.8547,272.2604,0,U,48467,999,28203,.41927499E-4,.937E-5,0
STARLINK-2685,2021-040AS,2026-06-19T18:20:22.706880,15.31719038,.0001259,53.1609,76.5005,103.8775,256.2367,0,U,48468,999,28214,-.10596E-3,-.3654E-4,0
STARLINK-2661,2021-040AT,2026-06-19T18:13:37.867584,15.31707538,.0001019,53.1590,76.3313,90.5477,269.5641,0,U,48469,999,28214,.89937E-4,.2427E-4,0
