STARLINK-2700           
1 48431U 21040D   26170.34913250  .00000681  00000+0  33691-4 0  9990
2 48431  53.1589  39.8683 0001093  90.2884 269.8243 15.31705300282601
STARLINK-2680           
1 48432U 21040E   26170.34448410  .00001180  00000+0  49786-4 0  9999
2 48432  53.1604  39.9915 0001178  84.2740 275.8395 15.31703403282592
STARLINK-2699           
1 48433U 21040F   26170.36308487  .00002929  00000+0  10608-3 0  9993
2 48433  53.1615  39.6137 0001159  82.7153 277.3981 15.31706580282607
STARLINK-2692           
1 48434U 21040G   26170.34480246  .00000327  00000+0  22285-4 0  9991
2 48434  53.1600  39.8608 0000790 103.4089 256.7000 15.31708328282612
STARLINK-2633           
1 48435U 21040H   26170.84617306 -.00008108  00000+0 -24981-3 0  9997
2 48435  53.1595  50.0196 0001159  89.7752 270.3383 15.31698418282508
STARLINK-2639           
1 48436U 21040J   26170.42979568  .00001568  00000+0  62275-4 0  9993
2 48436  53.1593  64.8368 0001155  85.0109 275.1024 15.31699637282264
STARLINK-2642           
1 48437U 21040K   26170.76876919  .00000663  00000+0  33126-4 0  9995
2 48437  53.1604  76.1572 0001410 105.0788 255.0370 15.31702884282137
STARLINK-2640           
1 48438U 21040L   26170.43012608  .00000079  00000+0  14310-4 0  9992
2 48438  53.1599  64.8967 0001238  86.6151 273.4992 15.31710703282266
STARLINK-2583           
1 48439U 21040M   26170.44413283  .00001782  00000+0  69133-4 0  9993
2 48439  53.1600  65.0092 0001074  75.3594 284.7527 15.31713788282261
STARLINK-2682           
1 48440U 21040N   26170.87289444  .00001044  00000+0  45411-4 0  9996
2 48440  53.1604  62.7453 0001432  99.0143 261.1021 15.31703316282335
STARLINK-2702           
1 48441U 21040P   26170.42081517  .00012515  00000+0  41451-3 0  9993
2 48441  53.1612  64.9388 0001435  91.7546 268.3620 15.31688892282262
STARLINK-2644           
1 48442U 21040Q   26170.09671233  .00037565  00000+0  77895-3 0  9990
2 48442  53.1593  63.6736 0001994 206.3343 153.7563 15.45386543282258
STARLINK-2663           
1 48443U 21040R   26170.72840486  .00000767  00000+0  36496-4 0  9996
2 48443  53.1599  63.3893 0001427  96.6013 263.5151 15.31701203282310
STARLINK-2645           
1 48444U 21040S   26170.73308088  .00001508  00000+0  60361-4 0  9997
2 48444  53.1606  63.4542 0001169  99.2925 260.8209 15.31696692282315
STARLINK-2634           
1 48445U 21040T   26170.07124038  .00004174  00000+0  14614-3 0  9997
2 48445  53.1595  66.4730 0001189  95.7020 264.4117 15.31713384282219
STARLINK-2655           
1 48449U 21040X   26169.99666789 -.00001297  00000+0 -30033-4 0  9993
2 48449  53.1604  66.8338 0001002  85.9910 274.1206 15.31717382282203
STARLINK-2703           
1 48452U 21040AA  26170.12250727  .00002786  00000+0  10147-3 0  9990
2 48452  53.1594  66.2421 0001102  83.0730 277.0397 15.31717276282229
STARLINK-2620           
1 48453U 21040AB  26170.43943384 -.00000233  00000+0  42403-5 0  9991
2 48453  53.1599  64.7400 0000986  92.5289 267.5826 15.31706670282270
STARLINK-2654           
1 48454U 21040AC  26170.43477105  .00002869  00000+0  10414-3 0  9996
2 48454  53.1591  64.7560 0001118  64.1246 295.9871 15.31713538282272
STARLINK-2497           
1 48455U 21040AD  26170.52336545  .00003750  00000+0  13256-3 0  9996
2 48455  53.1597  64.6355 0001224  98.3490 261.7651 15.31699220282276
STARLINK-2698           
1 48458U 21040AG  26169.93650271  .00001315  00000+0  54109-4 0  9995
2 48458  53.1598  67.7489 0001192  98.5299 261.5838 15.31711955282900
STARLINK-2579           
1 48459U 21040AH  26170.03396128  .00000813  00000+0  37967-4 0  9992
2 48459  53.1603  66.6879 0001188  95.5460 264.5677 15.31707269282223
STARLINK-2582           
1 48460U 21040AJ  26170.83335647  .00127590  00000+0  64609-3 0  9995
2 48460  53.0480 347.1603 0001120 189.2631 230.0008 15.80679712  5972
STARLINK-2683           
1 48462U 21040AL  26170.45650824  .00022026  00000+0  71904-3 0  9996
2 48462  53.1598  77.6320 0001727  85.6364 274.4835 15.31718675282099
STARLINK-2686           
1 48464U 21040AN  26170.48015629  .00001301  00000+0  53667-4 0  9999
2 48464  53.1603  77.6393 0001114  90.1583 269.9546 15.31708761282095
STARLINK-2681           
1 48465U 21040AP  26170.82662484  .00085531  00000+0  62352-3 0  9992
2 48465  53.1388  62.3206 0001192 172.3038 187.7999 15.72592279282341
STARLINK-2687           
1 48466U 21040AQ  26170.47048837  .00002753  00000+0  10040-3 0  9996
2 48466  53.1602  77.6088 0001201  72.6275 287.4858 15.31713214282109
STARLINK-2659           
1 48467U 21040AR  26170.02769365  .00000937  00000+0  41927-4 0  9995
2 48467  53.1610  79.5518 0001305  87.8547 272.2604 15.31724970282037
STARLINK-2685           
1 48468U 21040AS  26170.76415170 -.00003654  00000+0 -10596-3 0  9997
2 48468  53.1609  76.5005 0001259 103.8775 256.2367 15.31719038282143
STARLINK-2661           
1 48469U 21040AT  26170.75946606  .00002427  00000+0  89937-4 0  9991
2 48469  53.1590  76.3313 0001019  90.5477 269.5641 15.31707538282142
